STARLINK-36844          
1 68117U 26044S   26094.91668981 -.01904442  00000+0 -38772-1 0  9991
2 68117  97.2849  56.2451 0001928  92.4236 200.4696 15.49319868  5571
STARLINK-36789          
1 68118U 26044T   26094.91668981 -.01926086  00000+0 -39690-1 0  9990
2 68118  97.2851  56.2537 0001878 107.4736 205.8959 15.49013033  5572
STARLINK-36850          
1 68119U 26044U   26094.91668981 -.01364039  00000+0 -27497-1 0  9997
2 68119  97.2854  56.2550 0001825  98.2664 217.3600 15.49573825  5571
STARLINK-36868          
1 68120U 26044V   26094.91668981 -.01924189  00000+0 -38874-1 0  9998
2 68120  97.2853  56.2635 0001705 107.5374 228.2434 15.49571651  5576
STARLINK-36855          
1 68121U 26044W   26094.91668981 -.00094880  00000+0 -17609-2 0  9998
2 68121  97.2848  56.2502 0001605 101.4823 206.2829 15.49237158  5570
STARLINK-36366          
1 68122U 26044X   26094.91668981 -.00042312  00000+0 -78011-3 0  9997
2 68122  97.2850  56.2538 0001797 103.2841 213.2869 15.49202183  5612
STARLINK-36922          
1 68123U 26044Y   26094.91668981  .00078214  00000+0  14281-2 0  9994
2 68123  97.2853  56.2646 0001664  76.4198 265.3929 15.49137093  5617
STARLINK-36938          
1 68124U 26044Z   26094.84687847  .00178312  00000+0  11738-2 0  9993
2 68124  97.2862  56.3682 0001549  11.8244 348.3057 15.75145208  5605
STARLINK-36839          
1 68125U 26044AA  26094.91668981  .00075396  00000+0  13774-2 0  9990
2 68125  97.2852  56.2622 0001846  86.3508 250.3744 15.49133004  5571
ECHOSTAR 25             
1 68126U 26045A   26094.72121189  .00000059  00000+0  00000+0 0  9994
2 68126   0.0350 281.2850 0001729 153.5686 248.9587  1.00270991   251
ICOR SV                 
1 68127U 26046A   26094.89785642  .00536291  12315-4  59478-3 0  9990
2 68127 123.0717 326.0041 0085624 238.0093 121.2641 16.01613398  3775
FIREFLY ALPHA R/B       
1 68128U 26046B   26094.57761740  .00045538  00000+0  59832-3 0  9995
2 68128 123.0919 319.2288 0017350  30.6209 329.5861 15.57923912  3675
GUOWANG GROUP 20 OBJECT*
1 68129U 26047A   26094.10011014 -.00000088  00000+0  50705-4 0  9991
2 68129  50.0020 327.8486 0000660 106.3931 253.7037 13.82826474  3126
GUOWANG GROUP 20 OBJECT*
1 68130U 26047B   26091.21157936 -.00000062  00000+0  69791-4 0  9993
2 68130  50.0054 339.2252 0000133 185.6237 174.4659 13.87767313  2711
GUOWANG GROUP 20 OBJECT*
1 68131U 26047C   26092.50577046 -.00000096  00000+0  42136-4 0  9996
2 68131  50.0019 334.0677 0000669 236.5521 123.5312 13.86320500  2907
GUOWANG GROUP 20 OBJECT*
1 68132U 26047D   26092.57516225 -.00000084  00000+0  51916-4 0  9999
2 68132  50.0067 333.7806 0000710 245.0360 115.0463 13.86594040  2909
